[{"OBJECT_NAME":"NUSAT-44 (MARIA MITCHELL)","OBJECT_ID":"2024-043AA","EPOCH":"2026-03-09T22:12:18.524160","MEAN_MOTION":15.29764305,"ECCENTRICITY":0.0007331,"INCLINATION":97.5299,"RA_OF_ASC_NODE":207.7691,"ARG_OF_PERICENTER":214.9017,"MEAN_ANOMALY":145.1743,"EPHEMERIS_TYPE":0,"CLASSIFICATION_TYPE":"U","NORAD_CAT_ID":59122,"ELEMENT_SET_NO":999,"REV_AT_EPOCH":11209,"BSTAR":0.00061063193,"MEAN_MOTION_DOT":0.00017562,"MEAN_MOTION_DDOT":0},{"OBJECT_NAME":"STARLINK-34331","OBJECT_ID":"2025-117B","EPOCH":"2026-03-09T07:14:50.593344","MEAN_MOTION":15.30187866,"ECCENTRICITY":0.00013753,"INCLINATION":53.1615,"RA_OF_ASC_NODE":41.5976,"ARG_OF_PERICENTER":77.5931,"MEAN_ANOMALY":282.5224,"EPHEMERIS_TYPE":0,"CLASSIFICATION_TYPE":"U","NORAD_CAT_ID":64204,"ELEMENT_SET_NO":999,"REV_AT_EPOCH":4446,"BSTAR":0.00081344087,"MEAN_MOTION_DOT":0.00023801,"MEAN_MOTION_DDOT":0}]
